HAWK-7C                 
1 56200U 23054Y   26068.68891713  .00007947  00000+0  30980-3 0  9991
2 56200  97.2829 317.5849 0003651  52.2090 307.9479 15.26207266161848
STARLINK-31783          
1 59750U 24090W   26068.34833197 -.00001420  00000+0 -42087-4 0  9994
2 59750  43.0002 185.7862 0001719 288.5690  71.4975 15.27582441103376
